[{"OBJECT_NAME":"GNOMES-5","OBJECT_ID":"2024-149DL","EPOCH":"2026-03-09T22:53:01.372704","MEAN_MOTION":15.00280005,"ECCENTRICITY":0.00076217,"INCLINATION":97.6857,"RA_OF_ASC_NODE":148.0235,"ARG_OF_PERICENTER":89.6268,"MEAN_ANOMALY":270.5829,"EPHEMERIS_TYPE":0,"CLASSIFICATION_TYPE":"U","NORAD_CAT_ID":60574,"ELEMENT_SET_NO":999,"REV_AT_EPOCH":8527,"BSTAR":0.00047414566,"MEAN_MOTION_DOT":5.885e-5,"MEAN_MOTION_DDOT":0},{"OBJECT_NAME":"STARLINK-35842","OBJECT_ID":"2025-298N","EPOCH":"2026-03-09T22:34:19.800480","MEAN_MOTION":14.9914279,"ECCENTRICITY":0.00027944,"INCLINATION":70.0011,"RA_OF_ASC_NODE":13.888,"ARG_OF_PERICENTER":263.2033,"MEAN_ANOMALY":96.8809,"EPHEMERIS_TYPE":0,"CLASSIFICATION_TYPE":"U","NORAD_CAT_ID":67087,"ELEMENT_SET_NO":999,"REV_AT_EPOCH":1325,"BSTAR":0.00085303821,"MEAN_MOTION_DOT":0.00010316,"MEAN_MOTION_DDOT":0}]
